{
    "links": {
        "self": "http://www.neowsapp.com/rest/v1/neo/54054750?api_key=iIulBulltgU6a56xZRHN4H3l9WmuAYTsLGpBGhQ2"
    },
    "id": "54054750",
    "neo_reference_id": "54054750",
    "name": "(2020 TJ)",
    "designation": "2020 TJ",
    "nasa_jpl_url": "http://ssd.jpl.nasa.gov/sbdb.cgi?sstr=54054750",
    "absolute_magnitude_h": 24.95,
    "estimated_diameter": {
        "kilometers": {
            "estimated_diameter_min": 0.0271991277,
            "estimated_diameter_max": 0.0608190985
        },
        "meters": {
            "estimated_diameter_min": 27.1991277348,
            "estimated_diameter_max": 60.8190985438
        },
        "miles": {
            "estimated_diameter_min": 0.0169007492,
            "estimated_diameter_max": 0.0377912241
        },
        "feet": {
            "estimated_diameter_min": 89.2359862375,
            "estimated_diameter_max": 199.5377312663
        }
    },
    "is_potentially_hazardous_asteroid": false,
    "close_approach_data": [
        {
            "close_approach_date": "2018-07-19",
            "close_approach_date_full": "2018-Jul-19 02:29",
            "epoch_date_close_approach": 1531967340000,
            "relative_velocity": {
                "kilometers_per_second": "11.9763098833",
                "kilometers_per_hour": "43114.7155799225",
                "miles_per_hour": "26789.8075779802"
            },
            "miss_distance": {
                "astronomical": "0.2459190708",
                "lunar": "95.6625185412",
                "kilometers": "36788969.184059196",
                "miles": "22859605.4369850648"
            },
            "orbiting_body": "Earth"
        },
        {
            "close_approach_date": "2020-09-25",
            "close_approach_date_full": "2020-Sep-25 10:05",
            "epoch_date_close_approach": 1601028300000,
            "relative_velocity": {
                "kilometers_per_second": "7.8495317675",
                "kilometers_per_hour": "28258.3143631439",
                "miles_per_hour": "17558.6176108102"
            },
            "miss_distance": {
                "astronomical": "0.0318444706",
                "lunar": "12.3874990634",
                "kilometers": "4763864.973037622",
                "miles": "2960128.4312663036"
            },
            "orbiting_body": "Earth"
        },
        {
            "close_approach_date": "2022-10-26",
            "close_approach_date_full": "2022-Oct-26 23:10",
            "epoch_date_close_approach": 1666825800000,
            "relative_velocity": {
                "kilometers_per_second": "18.5922519623",
                "kilometers_per_hour": "66932.1070641598",
                "miles_per_hour": "41589.0084143942"
            },
            "miss_distance": {
                "astronomical": "0.4153709039",
                "lunar": "161.5792816171",
                "kilometers": "62138602.483414693",
                "miles": "38611137.1609730434"
            },
            "orbiting_body": "Earth"
        },
        {
            "close_approach_date": "2119-10-20",
            "close_approach_date_full": "2119-Oct-20 14:41",
            "epoch_date_close_approach": 4727256060000,
            "relative_velocity": {
                "kilometers_per_second": "14.3459934444",
                "kilometers_per_hour": "51645.576399881",
                "miles_per_hour": "32090.5527358039"
            },
            "miss_distance": {
                "astronomical": "0.2688955728",
                "lunar": "104.6003778192",
                "kilometers": "40226204.943309936",
                "miles": "24995404.6994556768"
            },
            "orbiting_body": "Earth"
        }
    ],
    "orbital_data": {
        "orbit_id": "7",
        "orbit_determination_date": "2020-10-25 07:35:47",
        "first_observation_date": "2020-10-05",
        "last_observation_date": "2020-10-23",
        "data_arc_in_days": 18,
        "observations_used": 47,
        "orbit_uncertainty": "7",
        "minimum_orbit_intersection": ".022207",
        "jupiter_tisserand_invariant": "4.239",
        "epoch_osculation": "2459000.5",
        "eccentricity": ".3772548316489697",
        "semi_major_axis": "1.617459244258925",
        "inclination": "8.116065767299453",
        "ascending_node_longitude": "3.483261319157447",
        "orbital_period": "751.3606497547082",
        "perihelion_distance": "1.007264929366954",
        "perihelion_argument": "336.5379189026955",
        "aphelion_distance": "2.227653559150895",
        "perihelion_time": "2459099.055729488252",
        "mean_anomaly": "312.7789183165852",
        "mean_motion": ".4791307611298606",
        "equinox": "J2000",
        "orbit_class": {
            "orbit_class_type": "APO",
            "orbit_class_description": "Near-Earth asteroid orbits which cross the Earth’s orbit similar to that of 1862 Apollo",
            "orbit_class_range": "a (semi-major axis) > 1.0 AU; q (perihelion) < 1.017 AU"
        }
    },
    "is_sentry_object": false
}